CCSDS_OMM_VERS = 2.0
CREATION_DATE  = 
ORIGINATOR     = 

OBJECT_NAME    = STARLINK-36457
OBJECT_ID      = 2026-003R
CENTER_NAME    = EARTH
REF_FRAME      = TEME
TIME_SYSTEM    = UTC
MEAN_ELEMENT_THEORY = SGP/SGP4

EPOCH          = 2026-01-31T22:00:03.000096
MEAN_MOTION    = 15.52796846
ECCENTRICITY   = .00012266
INCLINATION    = 42.9999
RA_OF_ASC_NODE = 76.5497
ARG_OF_PERICENTER = 256.8876
MEAN_ANOMALY   = 300.6503

EPHEMERIS_TYPE = 0
CLASSIFICATION_TYPE = U
NORAD_CAT_ID   = 67349
ELEMENT_SET_NO = 999
REV_AT_EPOCH   = 476
BSTAR          = -.4071179E-1
MEAN_MOTION_DOT = -.2274253E-1
MEAN_MOTION_DDOT = 0

CCSDS_OMM_VERS = 2.0
CREATION_DATE  = 
ORIGINATOR     = 

OBJECT_NAME    = STARLINK-36475
OBJECT_ID      = 2026-003S
CENTER_NAME    = EARTH
REF_FRAME      = TEME
TIME_SYSTEM    = UTC
MEAN_ELEMENT_THEORY = SGP/SGP4

EPOCH          = 2026-01-31T22:00:03.000096
MEAN_MOTION    = 15.52794670
ECCENTRICITY   = .00013277
INCLINATION    = 42.9998
RA_OF_ASC_NODE = 76.5442
ARG_OF_PERICENTER = 261.8308
MEAN_ANOMALY   = 297.6233

EPHEMERIS_TYPE = 0
CLASSIFICATION_TYPE = U
NORAD_CAT_ID   = 67350
ELEMENT_SET_NO = 999
REV_AT_EPOCH   = 475
BSTAR          = -.40674176E-1
MEAN_MOTION_DOT = -.2272326E-1
MEAN_MOTION_DDOT = 0

CCSDS_OMM_VERS = 2.0
CREATION_DATE  = 
ORIGINATOR     = 

OBJECT_NAME    = STARLINK-36478
OBJECT_ID      = 2026-003T
CENTER_NAME    = EARTH
REF_FRAME      = TEME
TIME_SYSTEM    = UTC
MEAN_ELEMENT_THEORY = SGP/SGP4

EPOCH          = 2026-01-31T22:00:03.000096
MEAN_MOTION    = 15.52762330
ECCENTRICITY   = .00009489
INCLINATION    = 42.9997
RA_OF_ASC_NODE = 76.5397
ARG_OF_PERICENTER = 281.5057
MEAN_ANOMALY   = 279.8773

EPHEMERIS_TYPE = 0
CLASSIFICATION_TYPE = U
NORAD_CAT_ID   = 67351
ELEMENT_SET_NO = 999
REV_AT_EPOCH   = 475
BSTAR          = -.39714748E-1
MEAN_MOTION_DOT = -.2222541E-1
MEAN_MOTION_DDOT = 0

CCSDS_OMM_VERS = 2.0
CREATION_DATE  = 
ORIGINATOR     = 

OBJECT_NAME    = STARLINK-36479
OBJECT_ID      = 2026-003U
CENTER_NAME    = EARTH
REF_FRAME      = TEME
TIME_SYSTEM    = UTC
MEAN_ELEMENT_THEORY = SGP/SGP4

EPOCH          = 2026-01-31T22:00:03.000096
MEAN_MOTION    = 15.52758010
ECCENTRICITY   = .00011845
INCLINATION    = 42.9999
RA_OF_ASC_NODE = 76.5345
ARG_OF_PERICENTER = 273.3363
MEAN_ANOMALY   = 289.9608

EPHEMERIS_TYPE = 0
CLASSIFICATION_TYPE = U
NORAD_CAT_ID   = 67352
ELEMENT_SET_NO = 999
REV_AT_EPOCH   = 476
BSTAR          = -.39553631E-1
MEAN_MOTION_DOT = -.2214448E-1
MEAN_MOTION_DDOT = 0

CCSDS_OMM_VERS = 2.0
CREATION_DATE  = 
ORIGINATOR     = 

OBJECT_NAME    = STARLINK-36474
OBJECT_ID      = 2026-003V
CENTER_NAME    = EARTH
REF_FRAME      = TEME
TIME_SYSTEM    = UTC
MEAN_ELEMENT_THEORY = SGP/SGP4

EPOCH          = 2026-01-31T22:00:03.000096
MEAN_MOTION    = 15.52797844
ECCENTRICITY   = .00012577
INCLINATION    = 42.9999
RA_OF_ASC_NODE = 76.5303
ARG_OF_PERICENTER = 256.8823
MEAN_ANOMALY   = 308.3219

EPHEMERIS_TYPE = 0
CLASSIFICATION_TYPE = U
NORAD_CAT_ID   = 67353
ELEMENT_SET_NO = 999
REV_AT_EPOCH   = 476
BSTAR          = -.4073026E-1
MEAN_MOTION_DOT = -.2275255E-1
MEAN_MOTION_DDOT = 0

CCSDS_OMM_VERS = 2.0
CREATION_DATE  = 
ORIGINATOR     = 

OBJECT_NAME    = STARLINK-36448
OBJECT_ID      = 2026-003W
CENTER_NAME    = EARTH
REF_FRAME      = TEME
TIME_SYSTEM    = UTC
MEAN_ELEMENT_THEORY = SGP/SGP4

EPOCH          = 2026-01-31T22:00:03.000096
MEAN_MOTION    = 15.52817509
ECCENTRICITY   = .00014667
INCLINATION    = 42.9998
RA_OF_ASC_NODE = 76.5152
ARG_OF_PERICENTER = 257.5770
MEAN_ANOMALY   = 313.3747

EPHEMERIS_TYPE = 0
CLASSIFICATION_TYPE = U
NORAD_CAT_ID   = 67354
ELEMENT_SET_NO = 999
REV_AT_EPOCH   = 476
BSTAR          = -.41264791E-1
MEAN_MOTION_DOT = -.2303026E-1
MEAN_MOTION_DDOT = 0

CCSDS_OMM_VERS = 2.0
CREATION_DATE  = 
ORIGINATOR     = 

OBJECT_NAME    = STARLINK-36477
OBJECT_ID      = 2026-003X
CENTER_NAME    = EARTH
REF_FRAME      = TEME
TIME_SYSTEM    = UTC
MEAN_ELEMENT_THEORY = SGP/SGP4

EPOCH          = 2026-01-31T22:00:03.000096
MEAN_MOTION    = 15.52788827
ECCENTRICITY   = .00013273
INCLINATION    = 42.9998
RA_OF_ASC_NODE = 76.5253
ARG_OF_PERICENTER = 258.1779
MEAN_ANOMALY   = 308.9480

EPHEMERIS_TYPE = 0
CLASSIFICATION_TYPE = U
NORAD_CAT_ID   = 67355
ELEMENT_SET_NO = 999
REV_AT_EPOCH   = 475
BSTAR          = -.40526488E-1
MEAN_MOTION_DOT = -.2264654E-1
MEAN_MOTION_DDOT = 0

CCSDS_OMM_VERS = 2.0
CREATION_DATE  = 
ORIGINATOR     = 

OBJECT_NAME    = STARLINK-36429
OBJECT_ID      = 2026-003Y
CENTER_NAME    = EARTH
REF_FRAME      = TEME
TIME_SYSTEM    = UTC
MEAN_ELEMENT_THEORY = SGP/SGP4

EPOCH          = 2026-01-31T22:00:03.000096
MEAN_MOTION    = 15.52788817
ECCENTRICITY   = .00012201
INCLINATION    = 42.9999
RA_OF_ASC_NODE = 76.5204
ARG_OF_PERICENTER = 257.2033
MEAN_ANOMALY   = 311.8390

EPHEMERIS_TYPE = 0
CLASSIFICATION_TYPE = U
NORAD_CAT_ID   = 67356
ELEMENT_SET_NO = 999
REV_AT_EPOCH   = 475
BSTAR          = -.40560204E-1
MEAN_MOTION_DOT = -.2266228E-1
MEAN_MOTION_DDOT = 0

CCSDS_OMM_VERS = 2.0
CREATION_DATE  = 
ORIGINATOR     = 

OBJECT_NAME    = STARLINK-36456
OBJECT_ID      = 2026-003Z
CENTER_NAME    = EARTH
REF_FRAME      = TEME
TIME_SYSTEM    = UTC
MEAN_ELEMENT_THEORY = SGP/SGP4

EPOCH          = 2026-01-31T22:00:03.000096
MEAN_MOTION    = 15.52806708
ECCENTRICITY   = .0001351
INCLINATION    = 42.9998
RA_OF_ASC_NODE = 76.5098
ARG_OF_PERICENTER = 258.3721
MEAN_ANOMALY   = 314.5010

EPHEMERIS_TYPE = 0
CLASSIFICATION_TYPE = U
NORAD_CAT_ID   = 67357
ELEMENT_SET_NO = 999
REV_AT_EPOCH   = 476
BSTAR          = -.41023859E-1
MEAN_MOTION_DOT = -.2290356E-1
MEAN_MOTION_DDOT = 0

CCSDS_OMM_VERS = 2.0
CREATION_DATE  = 
ORIGINATOR     = 

OBJECT_NAME    = STARLINK-36466
OBJECT_ID      = 2026-003AA
CENTER_NAME    = EARTH
REF_FRAME      = TEME
TIME_SYSTEM    = UTC
MEAN_ELEMENT_THEORY = SGP/SGP4

EPOCH          = 2026-01-31T22:00:03.000096
MEAN_MOTION    = 15.52795409
ECCENTRICITY   = .00012887
INCLINATION    = 42.9995
RA_OF_ASC_NODE = 76.5052
ARG_OF_PERICENTER = 257.7259
MEAN_ANOMALY   = 317.0652

EPHEMERIS_TYPE = 0
CLASSIFICATION_TYPE = U
NORAD_CAT_ID   = 67358
ELEMENT_SET_NO = 999
REV_AT_EPOCH   = 476
BSTAR          = -.40692939E-1
MEAN_MOTION_DOT = -.2273271E-1
MEAN_MOTION_DDOT = 0

CCSDS_OMM_VERS = 2.0
CREATION_DATE  = 
ORIGINATOR     = 

OBJECT_NAME    = STARLINK-36499
OBJECT_ID      = 2026-003AB
CENTER_NAME    = EARTH
REF_FRAME      = TEME
TIME_SYSTEM    = UTC
MEAN_ELEMENT_THEORY = SGP/SGP4

EPOCH          = 2026-01-31T22:00:03.000096
MEAN_MOTION    = 15.52796784
ECCENTRICITY   = .00013766
INCLINATION    = 42.9996
RA_OF_ASC_NODE = 76.5000
ARG_OF_PERICENTER = 259.7247
MEAN_ANOMALY   = 316.9831

EPHEMERIS_TYPE = 0
CLASSIFICATION_TYPE = U
NORAD_CAT_ID   = 67359
ELEMENT_SET_NO = 999
REV_AT_EPOCH   = 476
BSTAR          = -.40729545E-1
MEAN_MOTION_DOT = -.2275232E-1
MEAN_MOTION_DDOT = 0

CCSDS_OMM_VERS = 2.0
CREATION_DATE  = 
ORIGINATOR     = 

OBJECT_NAME    = STARLINK-36469
OBJECT_ID      = 2026-003AC
CENTER_NAME    = EARTH
REF_FRAME      = TEME
TIME_SYSTEM    = UTC
MEAN_ELEMENT_THEORY = SGP/SGP4

EPOCH          = 2026-01-31T22:00:03.000096
MEAN_MOTION    = 15.52788036
ECCENTRICITY   = .00013669
INCLINATION    = 42.9999
RA_OF_ASC_NODE = 76.4951
ARG_OF_PERICENTER = 258.4210
MEAN_ANOMALY   = 320.2070

EPHEMERIS_TYPE = 0
CLASSIFICATION_TYPE = U
NORAD_CAT_ID   = 67360
ELEMENT_SET_NO = 999
REV_AT_EPOCH   = 476
BSTAR          = -.40552709E-1
MEAN_MOTION_DOT = -.2265912E-1
MEAN_MOTION_DDOT = 0

CCSDS_OMM_VERS = 2.0
CREATION_DATE  = 
ORIGINATOR     = 

OBJECT_NAME    = STARLINK-35306
OBJECT_ID      = 2026-003AD
CENTER_NAME    = EARTH
REF_FRAME      = TEME
TIME_SYSTEM    = UTC
MEAN_ELEMENT_THEORY = SGP/SGP4

EPOCH          = 2026-01-31T22:00:03.000096
MEAN_MOTION    = 15.52808860
ECCENTRICITY   = .00015176
INCLINATION    = 42.9999
RA_OF_ASC_NODE = 76.4897
ARG_OF_PERICENTER = 258.1070
MEAN_ANOMALY   = 322.4318

EPHEMERIS_TYPE = 0
CLASSIFICATION_TYPE = U
NORAD_CAT_ID   = 67361
ELEMENT_SET_NO = 999
REV_AT_EPOCH   = 470
BSTAR          = -.41054816E-1
MEAN_MOTION_DOT = -.2292158E-1
MEAN_MOTION_DDOT = 0

CCSDS_OMM_VERS = 2.0
CREATION_DATE  = 
ORIGINATOR     = 

OBJECT_NAME    = STARLINK-36428
OBJECT_ID      = 2026-003AE
CENTER_NAME    = EARTH
REF_FRAME      = TEME
TIME_SYSTEM    = UTC
MEAN_ELEMENT_THEORY = SGP/SGP4

EPOCH          = 2026-01-31T22:00:03.000096
MEAN_MOTION    = 15.52805191
ECCENTRICITY   = .00014498
INCLINATION    = 42.9999
RA_OF_ASC_NODE = 76.4845
ARG_OF_PERICENTER = 261.8188
MEAN_ANOMALY   = 320.6393

EPHEMERIS_TYPE = 0
CLASSIFICATION_TYPE = U
NORAD_CAT_ID   = 67362
ELEMENT_SET_NO = 999
REV_AT_EPOCH   = 476
BSTAR          = -.4100591E-1
MEAN_MOTION_DOT = -.2289442E-1
MEAN_MOTION_DDOT = 0

CCSDS_OMM_VERS = 2.0
CREATION_DATE  = 
ORIGINATOR     = 

OBJECT_NAME    = TWILIGHT A
OBJECT_ID      = 2026-004A
CENTER_NAME    = EARTH
REF_FRAME      = TEME
TIME_SYSTEM    = UTC
MEAN_ELEMENT_THEORY = SGP/SGP4

EPOCH          = 2026-01-31T22:28:46.019136
MEAN_MOTION    = 14.86987963
ECCENTRICITY   = .00077453
INCLINATION    = 97.7987
RA_OF_ASC_NODE = 32.7359
ARG_OF_PERICENTER = 220.6515
MEAN_ANOMALY   = 139.4123

EPHEMERIS_TYPE = 0
CLASSIFICATION_TYPE = U
NORAD_CAT_ID   = 67363
ELEMENT_SET_NO = 999
REV_AT_EPOCH   = 302
BSTAR          = .56180122E-3
MEAN_MOTION_DOT = .498E-4
MEAN_MOTION_DDOT = 0

